OBJECT_NAME,OBJECT_ID,EPOCH,MEAN_MOTION,ECCENTRICITY,INCLINATION,RA_OF_ASC_NODE,ARG_OF_PERICENTER,MEAN_ANOMALY,EPHEMERIS_TYPE,CLASSIFICATION_TYPE,NORAD_CAT_ID,ELEMENT_SET_NO,REV_AT_EPOCH,BSTAR,MEAN_MOTION_DOT,MEAN_MOTION_DDOT
INTELSAT 902 (IS-902),2001-039A,2026-07-11T11:36:37.992384,1.00271111,.0004425,6.1764,71.4854,35.9335,306.0222,0,U,26900,999,9093,0,-.284E-5,0
INTELSAT 904 (IS-904),2002-007A,2026-07-11T09:59:11.414976,1.00271577,.00054,6.9777,68.8900,23.3585,315.4057,0,U,27380,999,5200,0,-.226E-5,0
DIRECTV 5 (TEMPO 1),2002-023A,2026-07-11T08:52:25.287168,1.00271026,.0003021,4.9367,75.0072,41.0129,196.2530,0,U,27426,999,8836,0,-.56E-6,0
INTELSAT 905 (IS-905),2002-027A,2026-07-11T12:04:38.583840,1.00270720,.0003458,6.8121,69.5028,44.0353,219.8269,0,U,27438,999,5160,0,.93E-6,0
GALAXY 3C (G-3C),2002-030A,2026-07-11T10:55:38.613792,1.00270826,.0001507,3.7934,77.6601,38.2023,242.5835,0,U,27445,999,4673,0,-.151E-5,0
INTELSAT 906 (IS-906),2002-041A,2026-07-11T05:18:32.345280,1.00272334,.0003935,5.8616,72.6255,19.9437,340.3301,0,U,27513,999,8726,0,.14E-6,0
GALAXY 13 (HORIZONS-1),2003-044A,2026-07-11T12:12:38.769984,1.00269680,.0002213,1.4803,83.5552,22.1839,216.8314,0,U,27954,999,4681,0,.137E-5,0
INTELSAT 10-02,2004-022A,2026-07-11T10:07:40.602144,1.00269476,.0000438,0.0506,259.6808,346.5374,194.0210,0,U,28358,999,8079,0,-.5E-7,0
DIRECTV 8,2005-019A,2026-07-11T11:16:54.880032,1.00271001,.0003027,0.0181,74.1589,50.7355,214.6579,0,U,28659,999,7731,0,.7E-7,0
GALAXY 28 (G-28),2005-022A,2026-07-11T11:42:59.882112,1.00271737,.0002143,3.3583,78.6273,37.4203,321.9934,0,U,28702,999,5221,0,-.198E-5,0
GALAXY 16 (G-16),2006-023A,2026-07-11T11:22:39.330048,1.00271312,.0002444,0.0357,114.8496,4.6928,241.5013,0,U,29236,999,7321,0,-.121E-5,0
DIRECTV 9S,2006-043A,2026-07-11T11:22:01.891200,1.00270973,.0004994,2.4806,80.6087,32.4583,245.6204,0,U,29494,999,5162,0,-.11E-5,0
GALAXY 17 (G-17),2007-016B,2026-07-11T11:26:38.949216,1.00270764,.0003557,3.0303,79.5938,32.6183,263.8098,0,U,31307,999,7004,0,-.203E-5,0
INTELSAT 11 (IS-11),2007-044B,2026-07-11T06:48:29.507904,0.99050871,.0004033,3.6253,78.3769,99.9035,232.8124,0,U,32253,999,6868,0,-.59E-6,0
HORIZONS-2,2007-063B,2026-07-11T11:29:46.150368,1.00270415,.0003554,2.6619,80.3278,17.8937,289.8110,0,U,32388,999,6805,0,-.25E-5,0
DIRECTV 11,2008-013A,2026-07-11T11:22:31.841760,1.00272891,.000016,0.0136,266.6447,246.7097,207.4736,0,U,32729,999,4583,0,-.12E-5,0
GALAXY 18 (G-18),2008-024A,2026-07-11T11:15:47.488032,1.00270278,.0002794,0.0275,44.0761,81.7959,209.4560,0,U,32951,999,4609,0,0,0
GALAXY 19 (G-19),2008-045A,2026-07-11T11:23:09.283200,1.00272230,.0002333,0.0538,246.6407,232.7377,243.7843,0,U,33376,999,6514,0,-.133E-5,0
FM-5,2009-034A,2026-07-11T11:26:16.484352,1.00269347,.0000745,0.0383,274.0975,61.3460,39.3440,0,U,35493,999,4688,0,-.194E-5,0
INTELSAT 14 (IS-14),2009-064A,2026-07-11T09:55:19.285824,1.00271333,.0002234,0.0172,28.4233,87.2651,277.4757,0,U,36097,999,6084,0,-.267E-5,0
INTELSAT 15 (IS-15),2009-067A,2026-07-11T13:04:58.698048,1.00271276,.0002105,0.0135,56.6625,61.9965,92.1894,0,U,36106,999,4147,0,-.179E-5,0
DIRECTV 12,2009-075A,2026-07-11T11:21:31.938048,1.00272197,.0000326,0.0193,152.8520,60.7229,143.4564,0,U,36131,999,4679,0,-.98E-6,0
INTELSAT 16 (IS-16),2010-006A,2026-07-11T11:29:08.708064,1.00271078,.0002276,0.0116,28.8758,106.3867,250.2077,0,U,36397,999,5989,0,-.239E-5,0
XM-5,2010-053A,2026-07-11T08:51:54.088992,1.00271440,.0001802,0.0631,266.8044,317.5891,82.6642,0,U,37185,999,5772,0,-.17E-6,0
INTELSAT 17 (IS-17),2010-065B,2026-07-11T12:09:42.321312,1.00271909,.0002633,0.0184,91.1467,24.5685,62.1167,0,U,37238,999,5349,0,.4E-7,0
INTELSAT 28 (IS-28),2011-016A,2026-07-11T09:59:03.928416,1.00271927,.0003678,1.8661,82.3217,38.3540,286.6931,0,U,37392,999,5352,0,-.221E-5,0
INTELSAT 18 (IS-18),2011-056A,2026-07-11T12:28:38.629056,1.00272835,.0001728,0.0232,292.4208,195.0975,169.0705,0,U,37834,999,5405,0,.59E-6,0
INTELSAT 22 (IS-22),2012-011A,2026-07-11T12:14:38.597280,1.00271181,.0001924,0.0391,68.3513,64.0037,52.8100,0,U,38098,999,743,0,0,0
INTELSAT 19 (IS-19),2012-030A,2026-07-11T10:55:22.291968,1.00271062,.000308,0.0159,37.2254,86.6411,135.3360,0,U,38356,999,5069,0,-.51E-6,0
INTELSAT 20 (IS-20),2012-043A,2026-07-09T23:41:38.660064,1.00267370,.00033596,0.0436,68.8286,128.7460,154.2151,0,U,38740,999,5097,0,0,0
INTELSAT 21 (IS-21),2012-045A,2026-07-11T11:34:15.719232,1.00271126,.0001715,0.0030,105.6235,27.4911,271.8344,0,U,38749,999,5076,0,-.279E-5,0
