INTELSAT 902 (IS-902)   
1 26900U 01039A   26192.48377306 -.00000284  00000+0  00000+0 0  9991
2 26900   6.1764  71.4854 0004425  35.9335 306.0222  1.00271111 90935
INTELSAT 904 (IS-904)   
1 27380U 02007A   26192.41610434 -.00000226  00000+0  00000+0 0  9991
2 27380   6.9777  68.8900 0005400  23.3585 315.4057  1.00271577 52006
DIRECTV 5 (TEMPO 1)     
1 27426U 02023A   26192.36973712 -.00000056  00000+0  00000+0 0  9996
2 27426   4.9367  75.0072 0003021  41.0129 196.2530  1.00271026 88366
INTELSAT 905 (IS-905)   
1 27438U 02027A   26192.50322435  .00000093  00000+0  00000+0 0  9999
2 27438   6.8121  69.5028 0003458  44.0353 219.8269  1.00270720 51601
GALAXY 3C (G-3C)        
1 27445U 02030A   26192.45530803 -.00000151  00000+0  00000+0 0  9991
2 27445   3.7934  77.6601 0001507  38.2023 242.5835  1.00270826 46733
INTELSAT 906 (IS-906)   
1 27513U 02041A   26192.22120770  .00000014  00000+0  00000+0 0  9999
2 27513   5.8616  72.6255 0003935  19.9437 340.3301  1.00272334 87265
GALAXY 13 (HORIZONS-1)  
1 27954U 03044A   26192.50878206  .00000137  00000+0  00000+0 0  9993
2 27954   1.4803  83.5552 0002213  22.1839 216.8314  1.00269680 46812
INTELSAT 10-02          
1 28358U 04022A   26192.42199771 -.00000005  00000+0  00000+0 0  9998
2 28358   0.0506 259.6808 0000438 346.5374 194.0210  1.00269476 80790
DIRECTV 8               
1 28659U 05019A   26192.47007963  .00000007  00000+0  00000+0 0  9996
2 28659   0.0181  74.1589 0003027  50.7355 214.6579  1.00271001 77317
GALAXY 28 (G-28)        
1 28702U 05022A   26192.48819308 -.00000198  00000+0  00000+0 0  9996
2 28702   3.3583  78.6273 0002143  37.4203 321.9934  1.00271737 52214
GALAXY 16 (G-16)        
1 29236U 06023A   26192.47406632 -.00000121  00000+0  00000+0 0  9998
2 29236   0.0357 114.8496 0002444   4.6928 241.5013  1.00271312 73211
DIRECTV 9S              
1 29494U 06043A   26192.47363300 -.00000110  00000+0  00000+0 0  9998
2 29494   2.4806  80.6087 0004994  32.4583 245.6204  1.00270973 51626
GALAXY 17 (G-17)        
1 31307U 07016B   26192.47683969 -.00000203  00000+0  00000+0 0  9994
2 31307   3.0303  79.5938 0003557  32.6183 263.8098  1.00270764 70043
INTELSAT 11 (IS-11)     
1 32253U 07044B   26192.28367486 -.00000059  00000+0  00000+0 0  9997
2 32253   3.6253  78.3769 0004033  99.9035 232.8124  0.99050871 68680
HORIZONS-2              
1 32388U 07063B   26192.47900637 -.00000250  00000+0  00000+0 0  9992
2 32388   2.6619  80.3278 0003554  17.8937 289.8110  1.00270415 68058
DIRECTV 11              
1 32729U 08013A   26192.47397965 -.00000120  00000+0  00000+0 0  9997
2 32729   0.0136 266.6447 0000160 246.7097 207.4736  1.00272891 45831
GALAXY 18 (G-18)        
1 32951U 08024A   26192.46929963  .00000000  00000+0  00000+0 0  9990
2 32951   0.0275  44.0761 0002794  81.7959 209.4560  1.00270278 46091
GALAXY 19 (G-19)        
1 33376U 08045A   26192.47441300 -.00000133  00000+0  00000+0 0  9998
2 33376   0.0538 246.6407 0002333 232.7377 243.7843  1.00272230 65145
FM-5                    
1 35493U 09034A   26192.47657968 -.00000194  00000+0  00000+0 0  9995
2 35493   0.0383 274.0975 0000745  61.3460  39.3440  1.00269347 46881
INTELSAT 14 (IS-14)     
1 36097U 09064A   26192.41341766 -.00000267  00000+0  00000+0 0  9990
2 36097   0.0172  28.4233 0002234  87.2651 277.4757  1.00271333 60846
INTELSAT 15 (IS-15)     
1 36106U 09067A   26192.54512382 -.00000179  00000+0  00000+0 0  9994
2 36106   0.0135  56.6625 0002105  61.9965  92.1894  1.00271276 41476
DIRECTV 12              
1 36131U 09075A   26192.47328632 -.00000098  00000+0  00000+0 0  9996
2 36131   0.0193 152.8520 0000326  60.7229 143.4564  1.00272197 46791
INTELSAT 16 (IS-16)     
1 36397U 10006A   26192.47857301 -.00000239  00000+0  00000+0 0  9993
2 36397   0.0116  28.8758 0002276 106.3867 250.2077  1.00271078 59894
XM-5                    
1 37185U 10053A   26192.36937603 -.00000017  00000+0  00000+0 0  9997
2 37185   0.0631 266.8044 0001802 317.5891  82.6642  1.00271440 57729
INTELSAT 17 (IS-17)     
1 37238U 10065B   26192.50673983  .00000004  00000+0  00000+0 0  9998
2 37238   0.0184  91.1467 0002633  24.5685  62.1167  1.00271909 53493
INTELSAT 28 (IS-28)     
1 37392U 11016A   26192.41601769 -.00000221  00000+0  00000+0 0  9991
2 37392   1.8661  82.3217 0003678  38.3540 286.6931  1.00271927 53527
INTELSAT 18 (IS-18)     
1 37834U 11056A   26192.51989154  .00000059  00000+0  00000+0 0  9992
2 37834   0.0232 292.4208 0001728 195.0975 169.0705  1.00272835 54055
INTELSAT 22 (IS-22)     
1 38098U 12011A   26192.51016895  .00000000  00000+0  00000+0 0  9996
2 38098   0.0391  68.3513 0001924  64.0037  52.8100  1.00271181  7436
INTELSAT 19 (IS-19)     
1 38356U 12030A   26192.45511912 -.00000051  00000+0  00000+0 0  9994
2 38356   0.0159  37.2254 0003080  86.6411 135.3360  1.00271062 50692
INTELSAT 20 (IS-20)     
1 38740U 12043A   26190.98725301  .00000000  00000+0  00000+0 0  9993
2 38740   0.0436  68.8286 0003359 128.7460 154.2151  1.00267370 50979
INTELSAT 21 (IS-21)     
1 38749U 12045A   26192.48212638 -.00000279  00000+0  00000+0 0  9994
2 38749   0.0030 105.6235 0001715  27.4911 271.8344  1.00271126 50763
